COSMOS 2419 (714)       
1 28915U 05050A   16233.51040279  .00000019  00000-0  00000+0 0  9997
2 28915  65.3509  75.9919 0015403 357.5551 168.8334  2.13111011 82924
COSMOS 2425 (716)       
1 29670U 06062A   16233.79415834 -.00000016  00000-0  10000-3 0  9996
2 29670  65.6036 314.9837 0019684 344.0557  96.2053  2.13105032 75131
COSMOS 2426 (717)       
1 29671U 06062B   16234.06486949 -.00000018  00000-0  10000-3 0  9995
2 29671  65.6207 315.0580 0018724 167.3455 341.0340  2.13103028 75140
COSMOS 2424 (715)       
1 29672U 06062C   16233.71139703 -.00000016  00000-0  10000-3 0  9998
2 29672  65.6055 314.9971 0018242 165.8725 247.5118  2.13102446 75137
COSMOS 2433 (720)       
1 32275U 07052A   16233.87130949  .00000016  00000-0  10000-3 0  9990
2 32275  65.3664  75.7523 0000622 255.1834  76.3354  2.13104814 68644
COSMOS 2432 (719)       
1 32276U 07052B   16233.70201683  .00000017  00000-0  10000-3 0  9998
2 32276  65.3793  75.8260 0011048 346.5478 168.7783  2.13104216 68648
COSMOS 2434 (721)       
1 32393U 07065A   16234.13578877 -.00000018  00000-0  00000+0 0  9999
2 32393  65.2211 314.2644 0004698 132.5182 293.4634  2.13102990 67362
COSMOS 2436 (723)       
1 32395U 07065C   16234.38972472 -.00000020  00000-0  10000-3 0  9995
2 32395  65.2341 314.2994 0015185 352.2836   0.5324  2.13102996 67297
COSMOS 2443 (725)       
1 33379U 08046B   16234.24226862  .00000013  00000-0  10000-3 0  9999
2 33379  65.2968  75.1500 0016958 180.3171 340.0525  2.13101052 61529
COSMOS 2456 (730)       
1 36111U 09070A   16234.45241253  .00000055  00000-0  00000+0 0  9999
2 36111  64.1833 193.8297 0006211 298.1758 180.5528  2.13103020 52039
COSMOS 2457 (733)       
1 36112U 09070B   16233.74035368  .00000051  00000-0  00000-0 0  9996
2 36112  64.1655 193.7794 0006719 187.6808 234.7288  2.13101748 52023
COSMOS 2458 (734)       
1 36113U 09070C   16233.62718076  .00000050  00000-0  10000-3 0  9991
2 36113  64.1711 193.7886 0002475 294.5512  88.6468  2.13102028 52022
COSMOS 2459 (731)       
1 36400U 10007A   16233.74497009  .00000016  00000-0  10000-3 0  9997
2 36400  65.2752  74.9000 0027930 357.0549 102.3426  2.13102346 50371
COSMOS 2461 (735)       
1 36401U 10007B   16233.48140741  .00000018  00000-0  10000-3 0  9999
2 36401  65.2662  74.8894 0008325  74.0354  93.7554  2.13102408 50362
COSMOS 2460 (732)       
1 36402U 10007C   16234.16588285  .00000014  00000-0  10000-3 0  9991
2 36402  65.2575  74.8429 0002033  82.4018 292.2294  2.13101849 50387
COSMOS 2465 (737)       
1 37138U 10041B   16233.65935438 -.00000016  00000-0  00000+0 0  9993
2 37138  64.8211 314.4222 0036908 172.8392 290.6598  2.13103527 46443
COSMOS 2464 (736)       
1 37139U 10041C   16234.09287833 -.00000019  00000-0  00000+0 0  9995
2 37139  64.8276 314.4028 0020860  11.8794 248.8850  2.13102837 46457
COSMOS 2471 (701K)      
1 37372U 11009A   16234.24574770  .00000013  00000-0  00000+0 0  9998
2 37372  65.2543  74.7881 0006605 226.8911 341.8170  2.13102849 42651
COSMOS 2474 (742)       
1 37829U 11055A   16233.69927413  .00000051  00000-0  00000+0 0  9992
2 37829  64.5080 194.2944 0010461 254.1305 227.9443  2.13102010 38012
COSMOS 2476 (744)       
1 37867U 11064A   16233.74874791  .00000052  00000-0  00000-0 0  9992
2 37867  64.4879 194.3723 0019423 248.1034 317.7860  2.13102074 37362
COSMOS 2477 (745)       
1 37868U 11064B   16233.63191215  .00000051  00000-0  00000+0 0  9992
2 37868  64.4966 194.4168 0017414 249.5651  45.9645  2.13101968 37319
COSMOS 2475 (743)       
1 37869U 11064C   16233.70041308  .00000052  00000-0  00000-0 0  9990
2 37869  64.5031 194.4037 0022667 273.4384  30.8165  2.13102215 37321
COSMOS 2485 (747)       
1 39155U 13019A   16233.58094240  .00000051  00000-0  00000+0 0  9999
2 39155  64.6571 194.3429 0019664 243.2083 239.0582  2.13102136 25830
COSMOS 2492 (754)       
1 39620U 14012A   16233.75604491  .00000023  00000-0  17879+2 0  9997
2 39620  65.1468  74.8344 0014524 339.7373 310.2734  2.13103695 18787
COSMOS 2500 (755)       
1 40001U 14032A   16234.29578694  .00000012  00000-0  00000+0 0  9993
2 40001  65.0884  74.8366 0005320 187.0476  20.6812  2.13103037 17013
COSMOS 2501 (702K)      
1 40315U 14075A   16233.69144576 -.00000019  00000-0  00000+0 0  9997
2 40315  64.5937 315.8534 0018445 231.4951  33.5379  2.13101794 13401
COSMOS 2514 (751)       
1 41330U 16008A   16233.71335630  .00000016  00000-0  00000+0 0  9995
2 41330  64.8871  75.0756 0008046 204.6206  95.4855  2.13103599  4165
COSMOS 2516 (753)       
1 41554U 16032A   16234.06638917 -.00000020  00000-0  00000+0 0  9999
2 41554  64.7742 315.5313 0012805 219.3080 246.0755  2.13101571  1787
